[{"OBJECT_NAME":"STARLINK-34478","OBJECT_ID":"2025-129Z","EPOCH":"2026-03-09T10:58:08.947200","MEAN_MOTION":14.98328243,"ECCENTRICITY":0.00033112,"INCLINATION":70.0017,"RA_OF_ASC_NODE":74.9962,"ARG_OF_PERICENTER":268.3923,"MEAN_ANOMALY":91.6856,"EPHEMERIS_TYPE":0,"CLASSIFICATION_TYPE":"U","NORAD_CAT_ID":64435,"ELEMENT_SET_NO":999,"REV_AT_EPOCH":4119,"BSTAR":0.00011620674,"MEAN_MOTION_DOT":1.294e-5,"MEAN_MOTION_DDOT":0},{"OBJECT_NAME":"ANTELSAT","OBJECT_ID":"2014-033AA","EPOCH":"2026-03-09T21:56:19.142880","MEAN_MOTION":14.90152282,"ECCENTRICITY":0.00441676,"INCLINATION":97.764,"RA_OF_ASC_NODE":226.2739,"ARG_OF_PERICENTER":26.8149,"MEAN_ANOMALY":333.5339,"EPHEMERIS_TYPE":0,"CLASSIFICATION_TYPE":"U","NORAD_CAT_ID":40034,"ELEMENT_SET_NO":999,"REV_AT_EPOCH":63102,"BSTAR":0.00055679105,"MEAN_MOTION_DOT":5.434e-5,"MEAN_MOTION_DDOT":0}]
